NORAD_CAT_ID,OBJECT_NAME,OBJECT_TYPE,EPOCH,MEAN_MOTION,ECCENTRICITY,INCLINATION,RA_OF_ASC_NODE,ARG_OF_PERICENTER,MEAN_ANOMALY,BSTAR,MEAN_MOTION_DOT,MEAN_MOTION_DDOT,TLE_LINE0,TLE_LINE1,TLE_LINE2,SEMIMAJOR_AXIS,PERIOD,APOGEE,PERIGEE,DECAYED
55933.0,STARLINK-5852,PAYLOAD,2023-09-27 13:12:28,14.99140355,0.0003116,70.0018,19.027,268.008,92.0722,3.1338e-05,2.88e-06,0.0,0 STARLINK-5852,1 55933U 23037V   23270.55033531  .00000288  00000-0  31338-4 0  9999,2 55933  70.0018  19.0270 0003116 268.0080  92.0722 14.99140355 30047,6947.688,96.055,571.718,567.388,0.0
55933.0,STARLINK-5852,PAYLOAD,2023-09-27 16:24:38,14.99143083,0.0002939,70.0022,18.6897,266.9541,93.1282,1.7172e-05,1.16e-06,0.0,0 STARLINK-5852,1 55933U 23037V   23270.68378195  .00000116  00000-0  17172-4 0  9991,2 55933  70.0022  18.6897 0002939 266.9541  93.1282 14.99143083 30407,6947.68,96.055,571.587,567.503,0.0
55933.0,STARLINK-5852,PAYLOAD,2023-09-28 11:37:38,14.9913228,0.0002818,70.0023,16.6685,262.5947,97.4892,0.00010702,1.21e-05,0.0,0 STARLINK-5852,1 55933U 23037V   23271.48447428  .00001210  00000-0  10702-3 0  9993,2 55933  70.0023  16.6685 0002818 262.5947  97.4892 14.99132280 30523,6947.713,96.056,571.536,567.62,0.0
55933.0,STARLINK-5852,PAYLOAD,2023-09-28 14:49:48,14.99135051,0.00029,70.0022,16.3317,263.866,96.2169,5.2528e-05,5.46e-06,0.0,0 STARLINK-5852,1 55933U 23037V   23271.61792250  .00000546  00000-0  52528-4 0  9998,2 55933  70.0022  16.3317 0002900 263.8660  96.2169 14.99135051 30207,6947.704,96.055,571.584,567.555,0.0
55933.0,STARLINK-5852,PAYLOAD,2023-09-28 16:25:53,14.99134241,0.0002847,70.0024,16.1635,263.0777,97.0058,9.455e-05,1.058e-05,0.0,0 STARLINK-5852,1 55933U 23037V   23271.68464604  .00001058  00000-0  94550-4 0  9994,2 55933  70.0024  16.1635 0002847 263.0777  97.0058 14.99134241 30218,6947.707,96.055,571.55,567.594,0.0
55933.0,STARLINK-5852,PAYLOAD,2023-09-29 13:14:57,14.99137047,0.000296,70.0024,13.9747,262.8527,97.2296,7.729e-06,0.0,0.0,0 STARLINK-5852,1 55933U 23037V   23272.55205858  .00000000  00000-0  77290-5 0  9994,2 55933  70.0024  13.9747 0002960 262.8527  97.2296 14.99137047 30340,6947.698,96.055,571.62,567.507,0.0
55933.0,STARLINK-5852,PAYLOAD,2023-09-29 16:27:07,14.99139618,0.0002849,70.0028,13.6385,261.2255,98.8582,3.4265e-05,3.24e-06,0.0,0 STARLINK-5852,1 55933U 23037V   23272.68550414  .00000324  00000-0  34265-4 0  9992,2 55933  70.0028  13.6385 0002849 261.2255  98.8582 14.99139618 30707,6947.69,96.055,571.535,567.576,0.0
55933.0,STARLINK-5852,PAYLOAD,2023-09-30 10:04:02,14.99130905,0.0002982,70.0025,11.787,265.601,94.4809,-7.1298e-05,-9.62e-06,0.0,0 STARLINK-5852,1 55933U 23037V   23273.41947741 -.00000962  00000-0 -71298-4 0  9994,2 55933  70.0025  11.7870 0002982 265.6010  94.4809 14.99130905 30813,6947.717,96.056,571.654,567.51,0.0
55933.0,STARLINK-5852,PAYLOAD,2023-10-01 00:28:46,14.99140248,0.0003029,70.0016,10.268,268.3987,91.6825,3.7078e-05,3.58e-06,0.0,0 STARLINK-5852,1 55933U 23037V   23274.01998545  .00000358  00000-0  37078-4 0  9994,2 55933  70.0016  10.2680 0003029 268.3987  91.6825 14.99140248 30900,6947.688,96.055,571.658,567.449,0.0
55933.0,STARLINK-5852,PAYLOAD,2023-10-01 11:41:20,14.99149088,0.0003069,70.0013,9.0887,269.5919,90.4889,9.1087e-05,1.017e-05,0.0,0 STARLINK-5852,1 55933U 23037V   23274.48704506  .00001017  00000-0  91087-4 0  9990,2 55933  70.0013   9.0887 0003069 269.5919  90.4889 14.99149088 30979,6947.661,96.054,571.658,567.394,0.0
55933.0,STARLINK-5852,PAYLOAD,2023-10-01 13:17:25,14.99148885,0.0003095,70.0013,8.9202,269.519,90.5615,0.0001315,1.509e-05,0.0,0 STARLINK-5852,1 55933U 23037V   23274.55376749  .00001509  00000-0  13150-3 0  9992,2 55933  70.0013   8.9202 0003095 269.5190  90.5615 14.99148885 30644,6947.662,96.055,571.677,567.376,0.0
55933.0,STARLINK-5852,PAYLOAD,2023-10-01 16:29:34,14.99161086,0.0003071,70.001,8.583,269.9316,90.1491,0.00018975,2.22e-05,0.0,0 STARLINK-5852,1 55933U 23037V   23274.68720374  .00002220  00000-0  18975-3 0  9994,2 55933  70.0010   8.5830 0003071 269.9316  90.1491 14.99161086 31009,6947.624,96.054,571.623,567.355,0.0
55933.0,STARLINK-5852,PAYLOAD,2023-10-02 10:06:31,14.99130274,0.000307,70.001,6.7306,270.4318,89.6489,-9.7437e-06,-2.12e-06,0.0,0 STARLINK-5852,1 55933U 23037V   23275.42119289 -.00000212  00000-0 -97437-5 0  9997,2 55933  70.0010   6.7306 0003070 270.4318  89.6489 14.99130274 31112,6947.719,96.056,571.717,567.451,0.0
55933.0,STARLINK-5852,PAYLOAD,2023-10-02 14:54:45,14.99131825,0.0002955,70.0011,6.225,269.6185,90.4636,1.2481e-05,5.8e-07,0.0,0 STARLINK-5852,1 55933U 23037V   23275.62136403  .00000058  00000-0  12481-4 0  9997,2 55933  70.0011   6.2250 0002955 269.6185  90.4636 14.99131825 30801,6947.714,96.056,571.632,567.526,0.0
55933.0,STARLINK-5852,PAYLOAD,2023-10-03 05:19:30,14.99145934,0.0002872,70.0013,4.7092,267.75,92.3331,-0.00011289,-1.469e-05,0.0,0 STARLINK-5852,1 55933U 23037V   23276.22187515 -.00001469  00000-0 -11289-3 0  9997,2 55933  70.0013   4.7092 0002872 267.7500  92.3331 14.99145934 31235,6947.671,96.055,571.531,567.54,0.0
55933.0,STARLINK-5852,PAYLOAD,2023-10-03 13:19:54,14.99149175,0.0002776,70.0015,3.8674,263.7417,96.3426,-6.3897e-05,-8.72e-06,0.0,0 STARLINK-5852,1 55933U 23037V   23276.55548993 -.00000872  00000-0 -63897-4 0  9994,2 55933  70.0015   3.8674 0002776 263.7417  96.3426 14.99149175 30946,6947.661,96.054,571.454,567.597,0.0
55933.0,STARLINK-5852,PAYLOAD,2023-10-03 14:55:59,14.99152433,0.0002824,70.0014,3.699,265.5973,94.4864,-5.6937e-05,-7.88e-06,0.0,0 STARLINK-5852,1 55933U 23037V   23276.62221114 -.00000788  00000-0 -56937-4 0  9998,2 55933  70.0014   3.6990 0002824 265.5973  94.4864 14.99152433 31290,6947.651,96.054,571.478,567.554,0.0
55933.0,STARLINK-5852,PAYLOAD,2023-10-04 10:08:58,14.99137436,0.0002796,70.0015,1.6778,265.2567,94.8273,8.9175e-05,9.93e-06,0.0,0 STARLINK-5852,1 55933U 23037V   23277.42290258  .00000993  00000-0  89175-4 0  9998,2 55933  70.0015   1.6778 0002796 265.2567  94.8273 14.99137436 31415,6947.697,96.055,571.505,567.62,0.0
55933.0,STARLINK-5852,PAYLOAD,2023-10-04 13:21:08,14.99139422,0.0002795,70.0014,1.341,264.2112,95.8729,0.00010521,1.188e-05,0.0,0 STARLINK-5852,1 55933U 23037V   23277.55634870  .00001188  00000-0  10521-3 0  9999,2 55933  70.0014   1.3410 0002795 264.2112  95.8729 14.99139422 31096,6947.691,96.055,571.498,567.614,0.0
55933.0,STARLINK-5852,PAYLOAD,2023-10-04 14:57:13,14.99141218,0.000278,70.0016,1.1726,264.9481,95.1361,0.00012316,1.407e-05,0.0,0 STARLINK-5852,1 55933U 23037V   23277.62307106  .00001407  00000-0  12316-3 0  9994,2 55933  70.0016   1.1726 0002780 264.9481  95.1361 14.99141218 31109,6947.685,96.055,571.482,567.619,0.0
55933.0,STARLINK-5852,PAYLOAD,2023-10-05 10:10:13,14.99137871,0.0002608,70.002,359.1518,263.7414,96.3448,-5.3e-05,-7.39e-06,0.0,0 STARLINK-5852,1 55933U 23037V   23278.42376600 -.00000739  00000-0 -53000-4 0  9993,2 55933  70.0020 359.1518 0002608 263.7414  96.3448 14.99137871 31560,6947.696,96.055,571.373,567.749,0.0
55933.0,STARLINK-5852,PAYLOAD,2023-10-05 13:22:23,14.99140321,0.000282,70.0016,358.8137,266.5396,93.5441,-2.656e-05,-4.17e-06,0.0,0 STARLINK-5852,1 55933U 23037V   23278.55721138 -.00000417  00000-0 -26560-4 0  9991,2 55933  70.0016 358.8137 0002820 266.5396  93.5441 14.99140321 31245,6947.688,96.055,571.512,567.594,0.0
55933.0,STARLINK-5852,PAYLOAD,2023-10-05 14:58:27,14.99141812,0.0002739,70.0014,358.6453,266.0771,94.0075,7.361e-06,-4e-08,0.0,0 STARLINK-5852,1 55933U 23037V   23278.62393380 -.00000004  00000-0  73610-5 0  9993,2 55933  70.0014 358.6453 0002739 266.0771  94.0075 14.99141812 31259,6947.684,96.055,571.452,567.646,0.0
55933.0,STARLINK-5852,PAYLOAD,2023-10-06 10:11:32,14.9907683,0.0002839,70.0017,356.6248,272.7136,87.3699,-0.00069659,-8.557e-05,0.0,0 STARLINK-5852,1 55933U 23037V   23279.42468307 -.00008557  00000-0 -69659-3 0  9992,2 55933  70.0017 356.6248 0002839 272.7136  87.3699 14.99076830 31717,6947.884,96.059,571.722,567.777,0.0
55933.0,STARLINK-5852,PAYLOAD,2023-10-06 13:23:46,14.99028414,0.0003221,70.0005,356.2876,269.1879,90.8912,-0.0012706,-0.00015497,0.0,0 STARLINK-5852,1 55933U 23037V   23279.55818117 -.00015497  00000-0 -12706-2 0  9995,2 55933  70.0005 356.2876 0003221 269.1879  90.8912 14.99028414 31393,6948.034,96.062,572.137,567.661,0.0
55933.0,STARLINK-5852,PAYLOAD,2023-10-06 14:59:57,14.98959913,0.0003016,70.0017,356.1197,270.4144,89.667,-0.001922,-0.00023327,0.0,0 STARLINK-5852,1 55933U 23037V   23279.62496844 -.00023327  00000-0 -19220-2 0  9991,2 55933  70.0017 356.1197 0003016 270.4144  89.6670 14.98959913 31745,6948.246,96.067,572.206,568.015,0.0
55933.0,STARLINK-5852,PAYLOAD,2023-10-06 23:00:34,14.98843086,0.0002959,70.0017,355.2782,276.4667,83.6156,-0.002949,-0.00035571,0.0,0 STARLINK-5852,1 55933U 23037V   23279.95873759 -.00035571  00000-0 -29490-2 0  9995,2 55933  70.0017 355.2782 0002959 276.4667  83.6156 14.98843086 31797,6948.607,96.074,572.528,568.416,0.0
55933.0,STARLINK-5852,PAYLOAD,2023-10-07 10:13:31,14.98673075,0.0003664,70.0002,354.1009,269.8543,90.2196,-0.0042563,-0.00050964,0.0,0 STARLINK-5852,1 55933U 23037V   23280.42605680 -.00050964  00000-0 -42563-2 0  9994,2 55933  70.0002 354.1009 0003664 269.8543  90.2196 14.98673075 31869,6949.132,96.085,573.543,568.451,0.0
55933.0,STARLINK-5852,PAYLOAD,2023-10-07 13:25:46,14.98653725,0.0003201,70.0008,353.7619,268.3972,91.6821,-0.0043389,-0.00051916,0.0,0 STARLINK-5852,1 55933U 23037V   23280.55956025 -.00051916  00000-0 -43389-2 0  9995,2 55933  70.0008 353.7619 0003201 268.3972  91.6821 14.98653725 31549,6949.192,96.086,573.281,568.833,0.0
55933.0,STARLINK-5852,PAYLOAD,2023-10-07 15:01:52,14.98648728,0.0003199,70.0011,353.5938,269.9211,90.1582,-0.0043121,-0.00051592,0.0,0 STARLINK-5852,1 55933U 23037V   23280.62630719 -.00051592  00000-0 -43121-2 0  9996,2 55933  70.0011 353.5938 0003199 269.9211  90.1582 14.98648728 31897,6949.207,96.087,573.295,568.849,0.0
